INTELSAT 902 (IS-902)   
1 26900U 01039A   26160.25045014 -.00000268  00000+0  00000+0 0  9991
2 26900   6.0963  71.8806 0004426   4.4891 221.3211  1.00272549 90613
INTELSAT 904 (IS-904)   
1 27380U 02007A   26160.24488929 -.00000210  00000+0  00000+0 0  9992
2 27380   6.8994  69.2783 0006685   1.2026 243.8061  1.00272888 51689
DIRECTV 5 (TEMPO 1)     
1 27426U 02023A   26160.24879770 -.00000041  00000+0  00000+0 0  9991
2 27426   4.8566  75.4081 0003332  13.1731 148.5099  1.00271556 88047
INTELSAT 905 (IS-905)   
1 27438U 02027A   26159.60380082  .00000109  00000+0  00000+0 0  9993
2 27438   6.7311  69.9025 0003953  14.5648 252.6814  1.00269870 51279
GALAXY 3C (G-3C)        
1 27445U 02030A   26160.23024110 -.00000136  00000+0  00000+0 0  9994
2 27445   3.7096  78.0811 0001748  31.9840 135.5822  1.00271653 46415
INTELSAT 906 (IS-906)   
1 27513U 02041A   26160.29072391  .00000029  00000+0  00000+0 0  9992
2 27513   5.7837  73.0175 0004648 359.0917 354.3483  1.00271320 86942
GALAXY 13 (HORIZONS-1)  
1 27954U 03044A   26160.28879311  .00000149  00000+0  00000+0 0  9994
2 27954   1.3998  83.9552 0002105 350.4794 137.1902  1.00273678 46491
INTELSAT 10-02          
1 28358U 04022A   26160.05649573  .00000005  00000+0  00000+0 0  9991
2 28358   0.0151 336.1514 0000525 195.6343 104.9809  1.00269264 80471
DIRECTV 8               
1 28659U 05019A   26160.32003412  .00000018  00000+0  00000+0 0  9992
2 28659   0.0175  13.0185 0002926  68.6316 172.2124  1.00271624 76995
GALAXY 28 (G-28)        
1 28702U 05022A   26160.26520274 -.00000184  00000+0  00000+0 0  9993
2 28702   3.2792  79.0283 0002845 354.8508 252.1318  1.00272300 51895
GALAXY 16 (G-16)        
1 29236U 06023A   26160.25096438 -.00000110  00000+0  00000+0 0  9996
2 29236   0.0286 120.8363 0002631 318.2011 169.9426  1.00271553 72898
DIRECTV 9S              
1 29494U 06043A   26160.25053104 -.00000097  00000+0  00000+0 0  9991
2 29494   2.3993  80.9972 0005004   7.4431 158.1951  1.00271348 51304
GALAXY 17 (G-17)        
1 31307U 07016B   26160.18240623 -.00000190  00000+0  00000+0 0  9998
2 31307   2.9509  80.0007 0004834  16.4803 141.7576  1.00271395 69720
INTELSAT 11 (IS-11)     
1 32253U 07044B   26160.23105296 -.00000240  00000+0  00000+0 0  9998
2 32253   3.5437  78.7650 0001923  84.0830 338.7303  0.99053622 68377
HORIZONS-2              
1 32388U 07063B   26160.23725109 -.00000237  00000+0  00000+0 0  9995
2 32388   2.5806  80.7226 0003946 355.9888 192.5479  1.00271529 67737
DIRECTV 11              
1 32729U 08013A   26160.05357880 -.00000109  00000+0  00000+0 0  9995
2 32729   0.0372 171.9066 0000327 221.7276 143.9123  1.00271306 45514
GALAXY 18 (G-18)        
1 32951U 08024A   26160.24619769  .00000042  00000+0  00000+0 0  9997
2 32951   0.0163 301.8627 0003161 148.0433 133.3525  1.00272498 45771
INTELSAT 25 (IS-25)     
1 33153U 08034A   26159.87418093 -.00000246  00000+0  00000+0 0  9994
2 33153   2.6860  80.4286 0001903  35.5606 254.5892  0.99020453 65609
GALAXY 19 (G-19)        
1 33376U 08045A   26160.05477479 -.00000122  00000+0  00000+0 0  9991
2 33376   0.0188 273.3735 0002720 164.3319 102.4621  1.00271006 64822
FM-5                    
1 35493U 09034A   26160.22699638 -.00000183  00000+0  00000+0 0  9991
2 35493   0.0203 287.4291 0000688  18.7387 307.0160  1.00272193 46563
INTELSAT 14 (IS-14)     
1 36097U 09064A   26160.26164940 -.00000257  00000+0  00000+0 0  9994
2 36097   0.0126 330.6272 0002763 124.3879 211.8267  1.00270451 60521
INTELSAT 15 (IS-15)     
1 36106U 09067A   26160.14481767 -.00000168  00000+0  00000+0 0  9995
2 36106   0.0168 342.1819 0002259  99.8208 312.8096  1.00271190 41145
DIRECTV 12              
1 36131U 09075A   26160.23870190 -.00000087  00000+0  00000+0 0  9994
2 36131   0.0418 135.0314 0000251 269.1703 196.6279  1.00271603 46473
INTELSAT 16 (IS-16)     
1 36397U 10006A   26160.23936295 -.00000228  00000+0  00000+0 0  9990
2 36397   0.0096 320.6139 0002137 135.8794 171.1039  1.00269785 59575
XM-5                    
1 37185U 10053A   26159.96257545 -.00000006  00000+0  00000+0 0  9994
2 37185   0.0671 272.7941 0002723 285.1463 290.7439  1.00270322 57402
INTELSAT 17 (IS-17)     
1 37238U 10065B   26160.14100433  .00000015  00000+0  00000+0 0  9990
2 37238   0.0058 122.7144 0002542 325.7921 285.7737  1.00272583 53163
INTELSAT 28 (IS-28)     
1 37392U 11016A   26160.26424941 -.00000208  00000+0  00000+0 0  9999
2 37392   1.7847  82.7206 0003785   0.5824 237.7648  1.00272096 53204
INTELSAT 18 (IS-18)     
1 37834U 11056A   26160.09223808  .00000070  00000+0  00000+0 0  9990
2 37834   0.0012 354.7032 0002067 100.6597  15.3233  1.00272262 53734
INTELSAT 22 (IS-22)     
1 38098U 12011A   26160.14221766 -.00000042  00000+0  00000+0 0  9992
2 38098   0.0264  67.7528 0001605   2.5980 310.4768  1.00273409  7106
INTELSAT 19 (IS-19)     
1 38356U 12030A   26160.23217963 -.00000039  00000+0  00000+0 0  9990
2 38356   0.0190 333.0915 0003044 112.5620  61.5472  1.00271944 50377
INTELSAT 20 (IS-20)     
1 38740U 12043A   26160.20302545 -.00000008  00000+0  00000+0 0  9995
2 38740   0.0065  83.3464 0001865  89.5561 226.2772  1.00273783 50663
